[{"OBJECT_NAME":"STARLINK-31082","OBJECT_ID":"2023-200T","EPOCH":"2026-03-09T22:00:01.999584","MEAN_MOTION":15.2675541,"ECCENTRICITY":0.00015064,"INCLINATION":43.0004,"RA_OF_ASC_NODE":167.238,"ARG_OF_PERICENTER":265.0701,"MEAN_ANOMALY":302.6536,"EPHEMERIS_TYPE":0,"CLASSIFICATION_TYPE":"U","NORAD_CAT_ID":58606,"ELEMENT_SET_NO":999,"REV_AT_EPOCH":578,"BSTAR":-0.00058507825,"MEAN_MOTION_DOT":-0.00015927,"MEAN_MOTION_DDOT":0},{"OBJECT_NAME":"FLOCK 4G-9","OBJECT_ID":"2025-009P","EPOCH":"2026-03-09T19:25:28.387776","MEAN_MOTION":15.26202239,"ECCENTRICITY":0.00036141,"INCLINATION":97.4,"RA_OF_ASC_NODE":150.6115,"ARG_OF_PERICENTER":328.2191,"MEAN_ANOMALY":31.8829,"EPHEMERIS_TYPE":0,"CLASSIFICATION_TYPE":"U","NORAD_CAT_ID":62622,"ELEMENT_SET_NO":999,"REV_AT_EPOCH":6369,"BSTAR":0.00041816911,"MEAN_MOTION_DOT":0.00010752,"MEAN_MOTION_DDOT":0}]
